NORAD_CAT_ID,OBJECT_NAME,OBJECT_TYPE,EPOCH,MEAN_MOTION,ECCENTRICITY,INCLINATION,RA_OF_ASC_NODE,ARG_OF_PERICENTER,MEAN_ANOMALY,BSTAR,MEAN_MOTION_DOT,MEAN_MOTION_DDOT,TLE_LINE0,TLE_LINE1,TLE_LINE2,SEMIMAJOR_AXIS,PERIOD,APOGEE,PERIGEE,DECAYED
53843.0,STARLINK-4769,PAYLOAD,2024-05-17 21:36:46,15.08824911,0.0001771,53.2199,20.6079,104.4253,255.6935,-0.00018019,-3.153e-05,0.0,0 STARLINK-4769,1 53843U 22114AB  24138.90053856 -.00003153  00000-0 -18019-3 0  9993,2 53843  53.2199  20.6079 0001771 104.4253 255.6935 15.08824911 92671,6917.927,95.439,541.017,538.566,0.0
53843.0,STARLINK-4769,PAYLOAD,2024-05-17 23:12:09,15.08830079,0.0001282,53.2183,20.3108,89.0747,271.0392,-0.00012167,-2.223e-05,0.0,0 STARLINK-4769,1 53843U 22114AB  24138.96677448 -.00002223  00000-0 -12167-3 0  9993,2 53843  53.2183  20.3108 0001282  89.0747 271.0392 15.08830079 93220,6917.911,95.438,540.663,538.889,0.0
53843.0,STARLINK-4769,PAYLOAD,2024-05-18 08:44:27,15.08844761,0.0001405,53.2185,18.5261,90.1719,269.9434,-2.4824e-05,-6.83e-06,0.0,0 STARLINK-4769,1 53843U 22114AB  24139.36420303 -.00000683  00000-0 -24824-4 0  9996,2 53843  53.2185  18.5261 0001405  90.1719 269.9434 15.08844761 92742,6917.866,95.437,540.703,538.759,0.0
53843.0,STARLINK-4769,PAYLOAD,2024-05-18 21:27:30,15.08862941,0.0001102,53.2176,16.1477,77.5459,282.5657,0.00018194,2.611e-05,0.0,0 STARLINK-4769,1 53843U 22114AB  24139.89410445  .00002611  00000-0  18194-3 0  9993,2 53843  53.2176  16.1477 0001102  77.5459 282.5657 15.08862941 92826,6917.81,95.436,540.438,538.913,0.0
53843.0,STARLINK-4769,PAYLOAD,2024-05-18 23:02:52,15.0887937,9.77e-05,53.2177,15.8494,65.0614,295.0479,0.00031413,4.72e-05,0.0,0 STARLINK-4769,1 53843U 22114AB  24139.96032930  .00004720  00000-0  31413-3 0  9992,2 53843  53.2177  15.8494 0000977  65.0614 295.0479 15.08879370 93372,6917.76,95.435,540.301,538.949,0.0
53843.0,STARLINK-4769,PAYLOAD,2024-05-19 02:13:38,15.08881086,0.0001023,53.218,15.2547,67.4617,292.6483,0.00032075,4.826e-05,0.0,0 STARLINK-4769,1 53843U 22114AB  24140.09280558  .00004826  00000-0  32075-3 0  9991,2 53843  53.2180  15.2547 0001023  67.4617 292.6483 15.08881086 92858,6917.755,95.435,540.327,538.912,0.0
53843.0,STARLINK-4769,PAYLOAD,2024-05-19 21:18:20,15.08824742,0.0001359,53.2176,11.6873,78.9017,281.2128,6.9869e-05,8.24e-06,0.0,0 STARLINK-4769,1 53843U 22114AB  24140.88773385  .00000824  00000-0  69869-4 0  9999,2 53843  53.2176  11.6873 0001359  78.9017 281.2128 15.08824742 92977,6917.927,95.439,540.732,538.852,0.0
53843.0,STARLINK-4769,PAYLOAD,2024-05-20 14:47:34,15.08834632,0.0001435,53.2176,8.414,82.1245,277.991,-0.00017245,-3.031e-05,0.0,0 STARLINK-4769,1 53843U 22114AB  24141.61637653 -.00003031  00000-0 -17245-3 0  9993,2 53843  53.2176   8.4140 0001435  82.1245 277.9910 15.08834632 93626,6917.897,95.438,540.755,538.769,0.0
53843.0,STARLINK-4769,PAYLOAD,2024-05-20 21:09:06,15.08854183,0.000137,53.217,7.2253,82.8266,277.2882,-0.00022903,-3.933e-05,0.0,0 STARLINK-4769,1 53843U 22114AB  24141.88132410 -.00003933  00000-0 -22903-3 0  9991,2 53843  53.2170   7.2253 0001370  82.8266 277.2882 15.08854183 93129,6917.837,95.437,540.65,538.754,0.0
53843.0,STARLINK-4769,PAYLOAD,2024-05-20 22:44:29,15.08856227,0.0001457,53.2176,6.9285,78.3288,281.7868,-0.00020106,-3.488e-05,0.0,0 STARLINK-4769,1 53843U 22114AB  24141.94756194 -.00003488  00000-0 -20106-3 0  9997,2 53843  53.2176   6.9285 0001457  78.3288 281.7868 15.08856227 93671,6917.831,95.437,540.704,538.688,0.0
53843.0,STARLINK-4769,PAYLOAD,2024-05-21 20:59:53,15.08841946,0.0001545,53.2175,2.7662,74.2559,285.8604,0.00018989,2.736e-05,0.0,0 STARLINK-4769,1 53843U 22114AB  24142.87492566  .00002736  00000-0  18989-3 0  9999,2 53843  53.2175   2.7662 0001545  74.2559 285.8604 15.08841946 93278,6917.874,95.437,540.808,538.671,0.0
53843.0,STARLINK-4769,PAYLOAD,2024-05-22 00:10:38,15.0885418,0.0001566,53.2187,2.1735,76.1967,283.9199,0.00032889,4.952e-05,0.0,0 STARLINK-4769,1 53843U 22114AB  24143.00739511  .00004952  00000-0  32889-3 0  9996,2 53843  53.2187   2.1735 0001566  76.1967 283.9199 15.08854180 93297,6917.837,95.437,540.785,538.619,0.0
53843.0,STARLINK-4769,PAYLOAD,2024-05-22 20:50:41,15.08837536,0.0001583,53.2182,358.3063,88.1654,271.9519,6.3317e-05,7.2e-06,0.0,0 STARLINK-4769,1 53843U 22114AB  24143.86853496  .00000720  00000-0  63317-4 0  9999,2 53843  53.2182 358.3063 0001583  88.1654 271.9519 15.08837536 93421,6917.888,95.438,540.848,538.658,0.0
53843.0,STARLINK-4769,PAYLOAD,2024-05-23 20:41:27,15.08848425,0.0001518,53.2191,353.843,111.4132,248.7023,-5.0548e-05,-1.093e-05,0.0,0 STARLINK-4769,1 53843U 22114AB  24144.86212951 -.00001093  00000-0 -50548-4 0  9993,2 53843  53.2191 353.8430 0001518 111.4132 248.7023 15.08848425 94116,6917.855,95.437,540.77,538.67,0.0
53843.0,STARLINK-4769,PAYLOAD,2024-05-24 14:10:42,15.08843746,0.0001513,53.2194,350.5741,115.5648,244.5501,-2.3704e-05,-6.65e-06,0.0,0 STARLINK-4769,1 53843U 22114AB  24145.59077409 -.00000665  00000-0 -23704-4 0  9999,2 53843  53.2194 350.5741 0001513 115.5648 244.5501 15.08843746 94228,6917.869,95.437,540.781,538.687,0.0
53843.0,STARLINK-4769,PAYLOAD,2024-05-24 20:32:15,15.0883665,0.0002708,53.2194,349.3976,154.2684,205.8443,-7.4233e-05,-1.47e-05,0.0,0 STARLINK-4769,1 53843U 22114AB  24145.85573819 -.00001470  00000-0 -74233-4 0  9992,2 53843  53.2194 349.3976 0002708 154.2684 205.8443 15.08836650 93726,6917.891,95.438,541.629,537.882,0.0
53843.0,STARLINK-4769,PAYLOAD,2024-05-24 23:43:01,15.0884311,0.0001097,53.2179,348.7909,100.3979,259.7137,0.00011617,1.562e-05,0.0,0 STARLINK-4769,1 53843U 22114AB  24145.98820970  .00001562  00000-0  11617-3 0  9995,2 53843  53.2179 348.7909 0001097 100.3979 259.7137 15.08843110 93746,6917.871,95.437,540.495,538.977,0.0
53843.0,STARLINK-4769,PAYLOAD,2024-05-25 14:01:30,15.0883387,8.15e-05,53.2184,346.1156,78.0261,282.0822,-8.0756e-05,-1.572e-05,0.0,0 STARLINK-4769,1 53843U 22114AB  24146.58438461 -.00001572  00000-0 -80756-4 0  9996,2 53843  53.2184 346.1156 0000815  78.0261 282.0822 15.08833870 94372,6917.899,95.438,540.328,539.2,0.0
53843.0,STARLINK-4769,PAYLOAD,2024-05-25 20:23:12,15.0870346,0.0001657,53.2189,344.9332,100.7558,259.3621,-0.001198,-0.00019233,0.0,0 STARLINK-4769,1 53843U 22114AB  24146.84945268 -.00019233  00000-0 -11980-2 0  9997,2 53843  53.2189 344.9332 0001657 100.7558 259.3621 15.08703460 93875,6918.298,95.446,541.309,539.016,0.0
53843.0,STARLINK-4769,PAYLOAD,2024-05-26 04:19:59,15.08832781,0.0001023,53.2186,343.4405,88.1331,271.9778,-9.2279e-05,-1.756e-05,0.0,0 STARLINK-4769,1 53843U 22114AB  24147.18054501 -.00001756  00000-0 -92279-4 0  9999,2 53843  53.2186 343.4405 0001023  88.1331 271.9778 15.08832781 93920,6917.902,95.438,540.475,539.06,0.0
53843.0,STARLINK-4769,PAYLOAD,2024-05-26 21:49:12,15.0884627,9.67e-05,53.2178,340.17,87.5363,272.574,0.00013929,1.93e-05,0.0,0 STARLINK-4769,1 53843U 22114AB  24147.90917386  .00001930  00000-0  13929-3 0  9994,2 53843  53.2178 340.1700 0000967  87.5363 272.5740 15.08846270 94573,6917.861,95.437,540.395,539.057,0.0
53843.0,STARLINK-4769,PAYLOAD,2024-05-27 20:04:36,15.08846324,0.0001097,53.2191,336.0054,77.4629,282.6486,8.0467e-05,9.93e-06,0.0,0 STARLINK-4769,1 53843U 22114AB  24148.83653590  .00000993  00000-0  80467-4 0  9991,2 53843  53.2191 336.0054 0001097  77.4629 282.6486 15.08846324 94177,6917.861,95.437,540.485,538.967,0.0
53843.0,STARLINK-4769,PAYLOAD,2024-05-27 21:39:59,15.08848913,0.0001106,53.219,335.7077,85.255,274.8568,0.00010014,1.307e-05,0.0,0 STARLINK-4769,1 53843U 22114AB  24148.90277314  .00001307  00000-0  10014-3 0  9995,2 53843  53.2190 335.7077 0001106  85.2550 274.8568 15.08848913 94729,6917.853,95.437,540.483,538.953,0.0
53843.0,STARLINK-4769,PAYLOAD,2024-05-28 11:58:28,15.08838829,0.0001162,53.218,333.0354,77.8192,282.2931,0.00014357,1.998e-05,0.0,0 STARLINK-4769,1 53843U 22114AB  24149.49893792  .00001998  00000-0  14357-3 0  9994,2 53843  53.2180 333.0354 0001162  77.8192 282.2931 15.08838829 94810,6917.884,95.438,540.553,538.945,0.0
53843.0,STARLINK-4769,PAYLOAD,2024-05-28 19:55:23,15.0884523,0.0001245,53.219,331.5466,69.2855,290.827,3.7438e-05,3.08e-06,0.0,0 STARLINK-4769,1 53843U 22114AB  24149.83013732  .00000308  00000-0  37438-4 0  9990,2 53843  53.2190 331.5466 0001245  69.2855 290.8270 15.08845230 94322,6917.864,95.437,540.591,538.868,0.0
53843.0,STARLINK-4769,PAYLOAD,2024-05-29 11:49:15,15.08841792,0.0001235,53.2186,328.5742,63.2838,296.828,-6.7748e-06,-3.96e-06,0.0,0 STARLINK-4769,1 53843U 22114AB  24150.49254100 -.00000396  00000-0 -67748-5 0  9997,2 53843  53.2186 328.5742 0001235  63.2838 296.8280 15.08841792 94421,6917.875,95.437,540.594,538.886,0.0
53843.0,STARLINK-4769,PAYLOAD,2024-05-29 18:10:48,15.08841595,0.0001118,53.2182,327.3838,72.6946,287.4169,-3.6864e-05,-8.74e-06,0.0,0 STARLINK-4769,1 53843U 22114AB  24150.75750141 -.00000874  00000-0 -36864-4 0  9997,2 53843  53.2182 327.3838 0001118  72.6946 287.4169 15.08841595 95002,6917.876,95.437,540.514,538.967,0.0
53843.0,STARLINK-4769,PAYLOAD,2024-05-30 14:50:48,15.08842681,0.0001179,53.2181,323.5174,70.3034,289.8086,8.4108e-05,1.051e-05,0.0,0 STARLINK-4769,1 53843U 22114AB  24151.61861789  .00001051  00000-0  84108-4 0  9994,2 53843  53.2181 323.5174 0001179  70.3034 289.8086 15.08842681 95137,6917.872,95.437,540.553,538.922,0.0
53843.0,STARLINK-4769,PAYLOAD,2024-05-30 18:01:34,15.08844585,0.0001229,53.2179,322.9227,67.7997,292.3126,0.00010007,1.305e-05,0.0,0 STARLINK-4769,1 53843U 22114AB  24151.75109638  .00001305  00000-0  10007-3 0  9995,2 53843  53.2179 322.9227 0001229  67.7997 292.3126 15.08844585 94611,6917.866,95.437,540.582,538.881,0.0
53843.0,STARLINK-4769,PAYLOAD,2024-05-30 21:12:20,15.08848429,0.0001124,53.2175,322.3265,73.6579,286.4537,0.00012218,1.658e-05,0.0,0 STARLINK-4769,1 53843U 22114AB  24151.88357243  .00001658  00000-0  12218-3 0  9993,2 53843  53.2175 322.3265 0001124  73.6579 286.4537 15.08848429 95172,6917.855,95.437,540.497,538.942,0.0
